OBJECT_NAME,OBJECT_ID,EPOCH,MEAN_MOTION,ECCENTRICITY,INCLINATION,RA_OF_ASC_NODE,ARG_OF_PERICENTER,MEAN_ANOMALY,EPHEMERIS_TYPE,CLASSIFICATION_TYPE,NORAD_CAT_ID,ELEMENT_SET_NO,REV_AT_EPOCH,BSTAR,MEAN_MOTION_DOT,MEAN_MOTION_DDOT
STARLINK-37345,2026-111J,2026-06-11T12:19:02.856000,15.80947339,.0001603,53.1588,180.0459,132.5329,227.5829,0,U,69156,999,336,.99487E-3,.200982E-2,0
STARLINK-37353,2026-111K,2026-06-11T13:49:46.550208,15.80945603,.0001086,53.1579,179.7292,102.2179,257.8966,0,U,69157,999,337,.10353E-2,.209375E-2,0
STARLINK-37363,2026-111L,2026-06-11T12:15:44.993088,15.80960877,.0000981,53.1579,180.0312,85.5288,274.5847,0,U,69158,999,336,.11893E-2,.241689E-2,0
STARLINK-37343,2026-111M,2026-06-11T20:00:01.999008,15.53635611,.0001269,53.1587,178.9315,78.9626,62.8322,0,U,69159,999,468,-.43033E-1,-.2434607E-1,0
STARLINK-37328,2026-111N,2026-06-11T12:15:34.034112,15.80942285,.000119,53.1578,180.0293,114.8575,245.2572,0,U,69160,999,336,.83311E-3,.167492E-2,0
STARLINK-37311,2026-111P,2026-06-11T13:57:51.363072,15.78089630,.0001226,53.1584,179.7659,73.0761,287.0394,0,U,69161,999,337,.60147E-3,.105222E-2,0
STARLINK-36286,2026-111Q,2026-06-11T13:56:36.289248,15.78113535,.0000998,53.1582,179.7580,117.3718,242.7405,0,U,69162,999,337,.83256E-3,.14678E-2,0
STARLINK-37196,2026-111R,2026-06-11T12:29:20.616864,15.78116980,.000113,53.1585,180.0938,103.6068,256.5079,0,U,69163,999,336,.10843E-2,.192426E-2,0
STARLINK-36288,2026-111S,2026-06-11T12:28:10.524864,15.78131207,.0000915,53.1583,180.0882,106.6252,253.4870,0,U,69164,999,336,.11724E-2,.208655E-2,0
STARLINK-37445,2026-111T,2026-06-11T12:23:39.276384,15.78106147,.0001187,53.1584,180.0671,78.5702,281.5453,0,U,69165,999,336,.90775E-3,.1603E-2,0
STARLINK-37491,2026-111U,2026-06-11T12:27:02.054592,15.78119853,.000106,53.1581,180.0830,101.3660,258.7481,0,U,69166,999,336,.99152E-3,.175578E-2,0
STARLINK-37474,2026-111V,2026-06-11T13:54:32.980032,15.78134722,.0000932,53.1583,179.7493,94.2715,265.8413,0,U,69167,999,337,.96656E-3,.171168E-2,0
STARLINK-37469,2026-111W,2026-06-11T20:00:01.999008,15.49257799,.0000817,53.1593,179.1079,122.7546,290.9596,0,U,69168,999,468,.10488E-2,.58212E-3,0
STARLINK-37515,2026-111X,2026-06-11T12:21:00.103392,15.78100283,.0001815,53.1591,180.0547,54.8108,305.3083,0,U,69169,999,336,.9074E-3,.160197E-2,0
STARLINK-37437,2026-111Y,2026-06-11T20:00:01.999008,15.78075919,.000101,53.1585,178.4133,93.4925,302.9356,0,U,69170,999,468,-.3862E-3,-.67259E-3,0
STARLINK-37392,2026-111Z,2026-06-11T12:11:12.410592,15.78084460,.0000808,53.1588,180.0083,81.7301,278.3812,0,U,69171,999,336,.57811E-3,.101034E-2,0
STARLINK-37472,2026-111AA,2026-06-11T20:00:01.999008,15.70093390,.0000868,53.1588,178.3918,88.8556,316.7456,0,U,69172,999,468,-.24061E-1,-.2577848E-1,0
STARLINK-37461,2026-111AB,2026-06-11T20:00:01.999008,15.49260500,.0001277,53.1588,179.0155,112.8016,346.3043,0,U,69173,999,468,.13034E-2,.72594E-3,0
STARLINK-37333,2026-111AC,2026-06-11T12:18:43.925760,15.77697826,.0002234,53.1581,180.0439,62.8478,297.2771,0,U,69174,999,336,-.25704E-2,-.419143E-2,0
STARLINK-37385,2026-111AD,2026-06-11T20:00:01.999008,15.49515847,.0000711,53.1589,178.9283,68.0801,73.7518,0,U,69175,999,468,-.6641E-2,-.356039E-2,0
STARLINK-37414,2026-111AE,2026-06-11T13:43:34.853088,15.78117451,.0001288,53.1583,179.6977,104.2663,255.8502,0,U,69176,999,337,.1052E-2,.18655E-2,0
STRIX-7,2026-112A,2026-06-11T14:00:08.720064,15.01410044,.002369,44.9064,221.8811,15.2295,344.9285,0,U,69177,999,303,.2266E-3,.2752E-4,0
SHENZHOU-23 (SZ-23),2026-113A,2026-06-11T12:54:26.830656,15.60566891,.0008209,41.4693,356.3769,31.5834,328.5496,0,U,69180,999,29257,.19806993E-3,.16554E-3,0
STARLINK-37380,2026-114A,2026-06-11T18:32:59.646048,15.78096172,.0001034,53.1586,229.5304,92.5631,267.5509,0,U,69182,999,391,.7098E-3,.124615E-2,0
STARLINK-37089,2026-114B,2026-06-11T18:31:38.815392,15.78107250,.0000979,53.1589,229.5243,94.4791,265.6342,0,U,69183,999,391,.74178E-3,.130413E-2,0
STARLINK-37428,2026-114C,2026-06-11T18:29:37.199616,15.78130624,.0000923,53.1589,229.5153,91.9085,268.2042,0,U,69184,999,391,.10554E-2,.187283E-2,0
STARLINK-37237,2026-114D,2026-06-11T18:25:39.247968,15.78104989,.0000843,53.1593,229.4963,133.1072,227.0020,0,U,69185,999,391,.68054E-3,.119424E-2,0
STARLINK-37365,2026-114E,2026-06-11T18:26:06.526176,15.78117991,.0000937,53.1591,229.4981,146.7460,213.3621,0,U,69186,999,391,.10929E-2,.193999E-2,0
STARLINK-37209,2026-114F,2026-06-11T18:24:59.904000,15.78105239,.0001043,53.1594,229.4930,87.7089,272.4052,0,U,69187,999,391,.78913E-3,.138908E-2,0
